*******************************************************************************
 Revised : Jul 31, 2013                  Sun                                 10

 PHYSICAL PROPERTIES (revised Jan 16, 2014):
  GM (10^11 km^3/s^2)   = 1.3271244004193938  Mass (10^30 kg)   ~ 1.988544
  Radius (photosphere)  = 6.963(10^5) km  Angular diam at 1 AU  = 1919.3"
  Solar Radius (IAU)    = 6.955(10^5) km  Mean density          = 1.408 g/cm^3
  Surface gravity       =  274.0 m/s^2    Moment of inertia     = 0.059
  Escape velocity       =  617.7 km/s     Adopted sidereal per  = 25.38 d
  Pole (RA,DEC in deg.) =  286.13,63.87   Obliquity to ecliptic = 7 deg 15'        
  Solar constant (1 AU) = 1367.6 W/m^2    Solar lumin.(erg/s)   =  3.846(10^33)
  Mass-energy conv rate = 4.3(10^12 gm/s) Effective temp (K)    =  5778
  Surf. temp (photosphr)= 6600 K (bottom) Surf. temp (photosphr)=  4400 K (top)
  Photospheric depth    = ~400 km         Chromospheric depth   = ~2500 km
  Sunspot cycle         = 11.4 yr         Cycle 22 sunspot min. =  1991 A.D.

  Motn. rel to nrby strs= apex : RA=271 deg; DEC=+30 deg
                          speed: 19.4 km/s = 0.0112 AU/day
  Motn. rel to 2.73K BB = apex : l=264.7+-0.8; b=48.2+-0.5
                          speed: 369 +-11 km/s
*******************************************************************************
 
 
*******************************************************************************
Ephemeris / WWW_USER Fri Feb 10 17:49:23 2017 Pasadena, USA      / Horizons    
*******************************************************************************
Target body name: Sun (10)                        {source: DE431mx}
Center body name: Earth (399)                     {source: DE431mx}
Center-site name: GEOCENTRIC
*******************************************************************************
Start time      : A.D. 1749-Jan-01 00:00:00.0000 UT      
Stop  time      : A.D. 2030-Jan-01 00:00:00.0000 UT      
Step-size       : 1 calendar month
*******************************************************************************
Target pole/equ : IAU_SUN                         {East-longitude +}
Target radii    : 696000.0 x 696000.0 x 696000.0 k{Equator, meridian, pole}    
Center geodetic : 0.00000000,0.00000000,0.0000000 {E-lon(deg),Lat(deg),Alt(km)}
Center cylindric: 0.00000000,0.00000000,0.0000000 {E-lon(deg),Dxy(km),Dz(km)}
Center pole/equ : High-precision EOP model        {East-longitude +}
Center radii    : 6378.1 x 6378.1 x 6356.8 km     {Equator, meridian, pole}    
Target primary  : Sun
Vis. interferer : MOON (R_eq= 1737.400) km        {source: DE431mx}
Rel. light bend : Sun, EARTH                      {source: DE431mx}
Rel. lght bnd GM: 1.3271E+11, 3.9860E+05 km^3/s^2                              
Atmos refraction: NO (AIRLESS)
RA format       : DEG
Time format     : CAL 
EOP file        : eop.170210.p170504                                           
EOP coverage    : DATA-BASED 1962-JAN-20 TO 2017-FEB-10. PREDICTS-> 2017-MAY-03
Units conversion: 1 au= 149597870.700 km, c= 299792.458 km/s, 1 day= 86400.0 s 
Table cut-offs 1: Elevation (-90.0deg=NO ),Airmass (>38.000=NO), Daylight (NO )
Table cut-offs 2: Solar Elongation (  0.0,180.0=NO ),Local Hour Angle( 0.0=NO )
*******************************************************************************
 Date__(UT)__HR:MN        ObsEcLon    ObsEcLat
**********************************************
$$SOE
 1951-Jul-01 00:00      98.3678839   0.0002546
 1951-Aug-01 00:00     127.9512362   0.0002552
 1951-Sep-01 00:00     157.7569729   0.0001504
 1951-Oct-01 00:00     187.0079347   0.0000774
 1951-Nov-01 00:00     217.7558051   0.0000128
 1951-Dec-01 00:00     247.9796368   0.0000062
 1952-Jan-01 00:00     279.5140151   0.0000611
 1952-Feb-01 00:00     311.0734652   0.0001154
 1952-Mar-01 00:00     340.3587354   0.0000834
 1952-Apr-01 00:00      11.2119192   0.0000332
 1952-May-01 00:00      40.5616616  -0.0000449
 1952-Jun-01 00:00      70.4391906  -0.0001525
 1952-Jul-01 00:00      99.0930923  -0.0001895
 1952-Aug-01 00:00     128.6774358  -0.0001599
 1952-Sep-01 00:00     158.4901736  -0.0000200
 1952-Oct-01 00:00     187.7525227   0.0001203
 1952-Nov-01 00:00     218.5127138   0.0002423
 1952-Dec-01 00:00     248.7470562   0.0002377
 1953-Jan-01 00:00     280.2855384   0.0001170
 1953-Feb-01 00:00     311.8407945  -0.0000603
 1953-Mar-01 00:00     340.1133430  -0.0001187
 1953-Apr-01 00:00      10.9681139  -0.0002238
 1953-May-01 00:00      40.3206718  -0.0002543
 1953-Jun-01 00:00      70.2016577  -0.0001834
 1953-Jul-01 00:00      98.8590389  -0.0000773
 1953-Aug-01 00:00     128.4453180   0.0000421
 1953-Sep-01 00:00     158.2578171   0.0000586
 1953-Oct-01 00:00     187.5173077   0.0000268
 1953-Nov-01 00:00     218.2732900  -0.0000519
 1953-Dec-01 00:00     248.5031473  -0.0000770
 1954-Jan-01 00:00     280.0395373  -0.0000497
 1954-Feb-01 00:00     311.5956026   0.0000494
 1954-Mar-01 00:00     339.8688668   0.0000490
 1954-Apr-01 00:00      10.7280282   0.0001370
 1954-May-01 00:00      40.0846294   0.0001392
 1954-Jun-01 00:00      69.9698180   0.0000557
 1954-Jul-01 00:00      98.6293784  -0.0000490
 1954-Aug-01 00:00     128.2165269  -0.0001706
 1954-Sep-01 00:00     158.0271480  -0.0002040
 1954-Oct-01 00:00     187.2824865  -0.0001543
 1954-Nov-01 00:00     218.0332320  -0.0000138
 1954-Dec-01 00:00     248.2586667   0.0001332
 1955-Jan-01 00:00     279.7937601   0.0002436
 1955-Feb-01 00:00     311.3527142   0.0001980
 1955-Mar-01 00:00     339.6321979   0.0001574
 1955-Apr-01 00:00      10.4977647  -0.0000084
 1955-May-01 00:00      39.8590863  -0.0001163
 1955-Jun-01 00:00      69.7455572  -0.0001584
 1955-Jul-01 00:00      98.4040465  -0.0001277
 1955-Aug-01 00:00     127.9872357  -0.0000256
 1955-Sep-01 00:00     157.7923959   0.0000665
 1955-Oct-01 00:00     187.0424019   0.0000871
 1955-Nov-01 00:00     217.7875297   0.0000241
 1955-Dec-01 00:00     248.0096765  -0.0000550
 1956-Jan-01 00:00     279.5428781  -0.0001455
 1956-Feb-01 00:00     311.1025669  -0.0001307
 1956-Mar-01 00:00     340.3890959  -0.0000740
 1956-Apr-01 00:00      11.2419688   0.0000630
 1956-May-01 00:00      40.5909190   0.0001589
 1956-Jun-01 00:00      70.4673344   0.0002137
 1956-Jul-01 00:00      99.1209279   0.0001713
 1956-Aug-01 00:00     128.7064928   0.0000513
 1956-Sep-01 00:00     158.5217852  -0.0000833
 1956-Oct-01 00:00     187.7859906  -0.0001428
 1956-Nov-01 00:00     218.5474466  -0.0001157
 1956-Dec-01 00:00     248.7810827  -0.0000395
 1957-Jan-01 00:00     280.3193331   0.0000833
 1957-Feb-01 00:00     311.8750521   0.0001445
 1957-Mar-01 00:00     340.1465945   0.0001548
 1957-Apr-01 00:00      11.0026075   0.0000953
 1957-May-01 00:00      40.3548666   0.0000106
 1957-Jun-01 00:00      70.2349019  -0.0000985
 1957-Jul-01 00:00      98.8902653  -0.0001207
 1957-Aug-01 00:00     128.4755109  -0.0000513
 1957-Sep-01 00:00     158.2879473   0.0000741
 1957-Oct-01 00:00     187.5483671   0.0001342
 1957-Nov-01 00:00     218.3054661   0.0001332
 1957-Dec-01 00:00     248.5359597   0.0000633
 1958-Jan-01 00:00     280.0718860  -0.0000658
 1958-Feb-01 00:00     311.6272801  -0.0001736
 1958-Mar-01 00:00     339.9024519  -0.0002094
 1958-Apr-01 00:00      10.7630400  -0.0002290
 1958-May-01 00:00      40.1212391  -0.0001517
 1958-Jun-01 00:00      70.0057286   0.0000116
 1958-Jul-01 00:00      98.6635915   0.0001129
 1958-Aug-01 00:00     128.2473469   0.0001458
 1958-Sep-01 00:00     158.0549566   0.0000709
 1958-Oct-01 00:00     187.3090765  -0.0000170
 1958-Nov-01 00:00     218.0593274  -0.0001179
 1958-Dec-01 00:00     248.2851305  -0.0001404
 1959-Jan-01 00:00     279.8192862  -0.0000711
 1959-Feb-01 00:00     311.3765312   0.0000579
 1959-Mar-01 00:00     339.6547684   0.0000803
 1959-Apr-01 00:00      10.5200860   0.0001443
 1959-May-01 00:00      39.8825818   0.0001250
 1959-Jun-01 00:00      69.7709233   0.0000266
 1959-Jul-01 00:00      98.4301322  -0.0000544
 1959-Aug-01 00:00     128.0132663  -0.0001266
 1959-Sep-01 00:00     157.8177920  -0.0000990
 1959-Oct-01 00:00     187.0671596   0.0000111
 1959-Nov-01 00:00     217.8140639   0.0001737
 1959-Dec-01 00:00     248.0384722   0.0002280
 1960-Jan-01 00:00     279.5747995   0.0001727
 1960-Feb-01 00:00     311.1361230   0.0000143
 1960-Mar-01 00:00     340.4217419  -0.0000763
 1960-Apr-01 00:00      11.2741573  -0.0001839
 1960-May-01 00:00      40.6226833  -0.0001900
 1960-Jun-01 00:00      70.4996488  -0.0001036
 1960-Jul-01 00:00      99.1535274   0.0000051
 1960-Aug-01 00:00     128.7378802   0.0001281
 1960-Sep-01 00:00     158.5498166   0.0001450
 1960-Oct-01 00:00     187.8104795   0.0000753
 1960-Nov-01 00:00     218.5687658  -0.0000773
 1960-Dec-01 00:00     248.8021243  -0.0001752
 1961-Jan-01 00:00     280.3415899  -0.0002046
 1961-Feb-01 00:00     311.8994178  -0.0001154
 1961-Mar-01 00:00     340.1742677  -0.0000742
 1961-Apr-01 00:00      11.0302961   0.0000783
 1961-May-01 00:00      40.3824848   0.0001256
 1961-Jun-01 00:00      70.2621628   0.0000883
 1961-Jul-01 00:00      98.9184261   0.0000043
 1961-Aug-01 00:00     128.5037705  -0.0001240
 1961-Sep-01 00:00     158.3150548  -0.0001787
 1961-Oct-01 00:00     187.5728592  -0.0001446
 1961-Nov-01 00:00     218.3263888  -0.0000316
 1961-Dec-01 00:00     248.5541058   0.0000679
 1962-Jan-01 00:00     280.0895778   0.0001559
 1962-Feb-01 00:00     311.6470585   0.0001382
 1962-Mar-01 00:00     339.9234356   0.0001265
 1962-Apr-01 00:00      10.7858491   0.0000037
 1962-May-01 00:00      40.1443081  -0.0000838
 1962-Jun-01 00:00      70.0293517  -0.0001193
 1962-Jul-01 00:00      98.6875650  -0.0000661
 1962-Aug-01 00:00     128.2731012   0.0000618
 1962-Sep-01 00:00     158.0824290   0.0001741
